STARLINK-32736          
1 62443U 24251M   26068.99125961  .00032693  00000+0  11104-2 0  9998
2 62443  53.1639 333.9725 0001309  91.7034 268.4116 15.30218860 67833
JINJUSAT-1B             
1 63210U 25052A   26068.66363707  .00019955  00000+0  68430-3 0  9998
2 63210  97.4113 325.4613 0005550  82.1930 277.9941 15.30194857 54866
